{
"type": "FeatureCollection",
"name": "prediosx",
"crs": { "type": "name", "properties": { "name": "urn:ogc:def:crs:OGC:1.3:CRS84" } },
"features": [
{ "type": "Feature", "properties": { "ITEM": 19, "TIPO_INFRA": "AEROPORTUARIO", "PROYECTO": "AEROPUERTO DE JAUJA", "DENOMINACI": "AEROPUERTO FRANCISCO CARLE DE JAUJA", "UBICACION": "JAUJA", "DEPARTAMEN": "JUNIN", "GRUPO": "G3" }, "geometry": { "type": "Point", "coordinates": [ -75.476288405913195, -11.781421056636086 ] } },
{ "type": "Feature", "properties": { "ITEM": 12, "TIPO_INFRA": "AEROPORTUARIO", "PROYECTO": "AEROPUERTO DE ANDAHUAYLAS", "DENOMINACI": "AEROPUERTO DE ANDAHUAYLAS - APURIMAC", "UBICACION": "APURIMAC", "DEPARTAMEN": "APURIMAC", "GRUPO": "G2" }, "geometry": { "type": "Point", "coordinates": [ -73.352549631090213, -13.711091303884574 ] } },
{ "type": "Feature", "properties": { "ITEM": 1, "TIPO_INFRA": "AEROPORTUARIO", "PROYECTO": "AEROPUERTO DE TRUJILLO", "DENOMINACI": "AEROPUERTO INTERNACIONAL CORONEL FAP CARLOS MARTINEZ - TRUJILLO", "UBICACION": "TRUJILLO", "DEPARTAMEN": "LA LIBERTAD", "GRUPO": "G1" }, "geometry": { "type": "Point", "coordinates": [ -79.105943587245903, -8.077629845015833 ] } },
{ "type": "Feature", "properties": { "ITEM": 6, "TIPO_INFRA": "AEROPORTUARIO", "PROYECTO": "AEROPUERTO DE IQUITOS", "DENOMINACI": "AEROPUERTO INTERNACIONAL CORONEL FAP FRANCISCO SECADA V. - IQUITOS", "UBICACION": "IQUITOS", "DEPARTAMEN": "LORETO", "GRUPO": "G1" }, "geometry": { "type": "Point", "coordinates": [ -73.311736653144351, -3.788460212294556 ] } },
{ "type": "Feature", "properties": { "ITEM": 14, "TIPO_INFRA": "AEROPORTUARIO", "PROYECTO": "AEROPUERTO DE AYACUCHO", "DENOMINACI": "AEROPUERTO CORONEL FAP ALFREDO MENDIVIL DUARTE - AYACUCHO", "UBICACION": "AYACUCHO", "DEPARTAMEN": "AYACUCHO", "GRUPO": "G2" }, "geometry": { "type": "Point", "coordinates": [ -74.204825419862615, -13.154949872664316 ] } },
{ "type": "Feature", "properties": { "ITEM": 2, "TIPO_INFRA": "AEROPORTUARIO", "PROYECTO": "AEROPUERTO DE TUMBES", "DENOMINACI": "AEROPUERTO  CAPITAEN FAP PEDRO CANGA - TUMBES", "UBICACION": "TUMBES", "DEPARTAMEN": "TUMBES", "GRUPO": "G1" }, "geometry": { "type": "Point", "coordinates": [ -80.376805151816882, -3.557682577968302 ] } },
{ "type": "Feature", "properties": { "ITEM": 4, "TIPO_INFRA": "AEROPORTUARIO", "PROYECTO": "AEROPUERTO DE PISCO", "DENOMINACI": "AEROPUERTO INTERNACIONAL DE PISCO - CAPITAN FAP RENAN ELIAS OLIVERA - ICA", "UBICACION": "PISCO", "DEPARTAMEN": "ICA", "GRUPO": "G1" }, "geometry": { "type": "Point", "coordinates": [ -76.218760195524609, -13.741085011792746 ] } },
{ "type": "Feature", "properties": { "ITEM": 11, "TIPO_INFRA": "AEROPORTUARIO", "PROYECTO": "AEROPUERTO DE AREQUIPA", "DENOMINACI": "INTERNACIONAL ALFREDO RODRIGUEZ BALLON - AREQUIPA", "UBICACION": "AREQUIPA", "DEPARTAMEN": "AREQUIPA", "GRUPO": "G2" }, "geometry": { "type": "Point", "coordinates": [ -71.568749820483205, -16.339805089569793 ] } },
{ "type": "Feature", "properties": { "ITEM": 9, "TIPO_INFRA": "AEROPORTUARIO", "PROYECTO": "AEROPUERTO DE TARAPOTO", "DENOMINACI": "AEROPUERTO CADETE FAP GUILLERMO DEL CASTILLO - TARAPOTO", "UBICACION": "TARAPOTO", "DEPARTAMEN": "SAN MARTIN", "GRUPO": "G1" }, "geometry": { "type": "Point", "coordinates": [ -76.371698833807557, -6.511974020639919 ] } },
{ "type": "Feature", "properties": { "ITEM": 3, "TIPO_INFRA": "AEROPORTUARIO", "PROYECTO": "AEROPUERTO DE CHICLAYO", "DENOMINACI": "AEROPUERTO CAPITAN FAP JOSE ABELARDO QUIIONES - LAMBAYEQUE", "UBICACION": "LAMBAYEQUE", "DEPARTAMEN": "LAMBAYEQUE", "GRUPO": "G1" }, "geometry": { "type": "Point", "coordinates": [ -79.827932528345826, -6.784301690119456 ] } },
{ "type": "Feature", "properties": { "ITEM": 13, "TIPO_INFRA": "AEROPORTUARIO", "PROYECTO": "AEROPUERTO DE TACNA", "DENOMINACI": "AEROPUERTO INTERNACIONAL CORONEL FAP CARLOS CIRIANI SANTA ROSA - TACNA", "UBICACION": "TACNA", "DEPARTAMEN": "TACNA", "GRUPO": "G2" }, "geometry": { "type": "Point", "coordinates": [ -70.280155613787514, -18.062720498162125 ] } },
{ "type": "Feature", "properties": { "ITEM": 16, "TIPO_INFRA": "AEROPORTUARIO", "PROYECTO": "AEROPUERTO DE JULIACA", "DENOMINACI": "AEROPUERTO INTERNACIONAL INCA MANCO CAPAC - JULIACA", "UBICACION": "JULIACA", "DEPARTAMEN": "PUNO", "GRUPO": "G2" }, "geometry": { "type": "Point", "coordinates": [ -70.158706597442475, -15.467047896509092 ] } },
{ "type": "Feature", "properties": { "ITEM": 7, "TIPO_INFRA": "AEROPORTUARIO", "PROYECTO": "AEROPUERTO DE CAJAMARCA", "DENOMINACI": "AEROPUERTO MAYOR GENERAL FAP ARMANDO REVOREDO - CAJAMARCA", "UBICACION": "CAJAMARCA", "DEPARTAMEN": "CAJAMARCA", "GRUPO": "G1" }, "geometry": { "type": "Point", "coordinates": [ -78.489164835718796, -7.141565792563492 ] } },
{ "type": "Feature", "properties": { "ITEM": 8, "TIPO_INFRA": "AEROPORTUARIO", "PROYECTO": "AEROPUERTO DE PUCALLPA", "DENOMINACI": "AEROPUERTO CAPITAN FAP DAVID ABENSUR - PUCALLPA", "UBICACION": "PUCALLPA", "DEPARTAMEN": "UCAYALI", "GRUPO": "G1" }, "geometry": { "type": "Point", "coordinates": [ -74.574100055147809, -8.379099524247145 ] } },
{ "type": "Feature", "properties": { "ITEM": 15, "TIPO_INFRA": "AEROPORTUARIO", "PROYECTO": "AEROPUERTO DE PUERTO MALDONADO", "DENOMINACI": "AEROPUERTO INTERNACIONAL PADRE ALDAMIZ - MADRE DE DIOS", "UBICACION": "MADRE DE DIOS", "DEPARTAMEN": "MADRE DE DIOS", "GRUPO": "G2" }, "geometry": { "type": "Point", "coordinates": [ -69.226647882176422, -12.616506473913006 ] } },
{ "type": "Feature", "properties": { "ITEM": 5, "TIPO_INFRA": "AEROPORTUARIO", "PROYECTO": "AEROPUERTO DE PIURA", "DENOMINACI": "AEROPUERTO CAPITAN FAP GUILLERMO CONCHA - PIURA", "UBICACION": "PIURA", "DEPARTAMEN": "PIURA", "GRUPO": "G1" }, "geometry": { "type": "Point", "coordinates": [ -80.615142160463208, -5.207898705271514 ] } },
{ "type": "Feature", "properties": { "ITEM": 10, "TIPO_INFRA": "AEROPORTUARIO", "PROYECTO": "AEROPUERTO DE CHACHAPOYAS", "DENOMINACI": "AEROPUERTO DE CHACHAPOYAS - AMAZONAS", "UBICACION": "CHACHAPOYAS", "DEPARTAMEN": "AMAZONAS", "GRUPO": "G1" }, "geometry": { "type": "Point", "coordinates": [ -77.859665723895532, -6.19997306271121 ] } },
{ "type": "Feature", "properties": { "ITEM": 20, "TIPO_INFRA": "AEROPORTUARIO", "PROYECTO": "AEROPUERTO DE YURIMAGUAS", "DENOMINACI": "AEROPUERTO MOISES BENZAQUEN RENGIFO - YURIMAGUAS", "UBICACION": "YURIMAGUAS", "DEPARTAMEN": "LORETO", "GRUPO": "G3" }, "geometry": { "type": "Point", "coordinates": [ -76.118278669596307, -5.893700978661875 ] } },
{ "type": "Feature", "properties": { "ITEM": 18, "TIPO_INFRA": "AEROPORTUARIO", "PROYECTO": "AEROPUERTO DE TALARA", "DENOMINACI": "AEROPUERTO INTERNACIONAL CORONEL FAP VICTOR MONTES ARIAS - TALARA", "UBICACION": "TALARA", "DEPARTAMEN": "PIURA", "GRUPO": "G2" }, "geometry": { "type": "Point", "coordinates": [ -81.254386136653068, -4.576366988009943 ] } },
{ "type": "Feature", "properties": { "ITEM": 17, "TIPO_INFRA": "AEROPORTUARIO", "PROYECTO": "AEROPUERTO DE ANTA", "DENOMINACI": "COMANDANTE FAP GERMAN ARIAS - ANTA - ANCASH", "UBICACION": "ANTA", "DEPARTAMEN": "ANCASH", "GRUPO": "G2" }, "geometry": { "type": "Point", "coordinates": [ -77.597399274811082, -9.350828974563045 ] } },
{ "type": "Feature", "properties": { "ITEM": 21, "TIPO_INFRA": "FERROVIARIO", "PROYECTO": "FERROCARRIL HUANCAYO - HUANCAVELICA", "DENOMINACI": "PROYECTO FERROCARRIL HUANCAYO - HUANCAVELICA - FHH", "UBICACION": "HUANCAYO - HUANCAVELICA", "DEPARTAMEN": "HUANCAYO - HUANCAVELICA", "GRUPO": "PE" }, "geometry": { "type": "Point", "coordinates": [ -75.010870643737476, -12.499026374050812 ] } },
{ "type": "Feature", "properties": { "ITEM": 22, "TIPO_INFRA": "VIAL", "PROYECTO": "ANILLO VIAL PERIFERICO - AVP", "DENOMINACI": "ANILLO VIAL PERIFERICO - AVP", "UBICACION": "LIMA METROPOLITANA", "DEPARTAMEN": "LIMA", "GRUPO": "PE" }, "geometry": { "type": "Point", "coordinates": [ -77.068881441066964, -12.033156800212998 ] } },
{ "type": "Feature", "properties": { "ITEM": 23, "TIPO_INFRA": "VIAS CONCESIONADAS", "PROYECTO": " PVC LONGITUDINAL DE LA SIERRA NORTE - TRAMO 2", "DENOMINACI": "LONGITUDINAL DE LA SIERRA NORTE", "UBICACION": "SIERRA NORTE", "DEPARTAMEN": "LIMA", "GRUPO": "PVC" }, "geometry": { "type": "Point", "coordinates": [ -78.859177, -6.246476 ] } },

{ "type": "Feature", "properties": { "ITEM": 30, "TIPO_INFRA": "VIAS CONCESIONADAS", "PROYECTO": "PVC RED VIAL 4", "DENOMINACI": "RED VIAL 4", "UBICACION": "RED VIAL4", "DEPARTAMEN": "ANCASH", "GRUPO": "PVC" }, "geometry": { "type": "Point", "coordinates": [ -78.5545657, -8.9903375 ] } },
{ "type": "Feature", "properties": { "ITEM": 31, "TIPO_INFRA": "VIAS CONCESIONADAS", "PROYECTO": "PVC RED VIAL 5", "DENOMINACI": "RED VIAL 5", "UBICACION": "RED VIAL5", "DEPARTAMEN": "LIMA", "GRUPO": "PVC" }, "geometry": { "type": "Point", "coordinates": [ -77.789133, -10.685564 ] } },
{ "type": "Feature", "properties": { "ITEM": 32, "TIPO_INFRA": "VIAS CONCESIONADAS", "PROYECTO": "PVC RED VIAL 6", "DENOMINACI": "RED VIAL 6", "UBICACION": "RED VIAL6", "DEPARTAMEN": "ICA", "GRUPO": "PVC" }, "geometry": { "type": "Point", "coordinates": [ -76.1800721, -13.4641021 ] } },
{ "type": "Feature", "properties": { "ITEM": 33, "TIPO_INFRA": "VIAS CONCESIONADAS", "PROYECTO": "PVC IIRSA CENTRO TRAMO 2", "DENOMINACI": "IRSA TRAMO 2", "UBICACION": "IRSA TRAMO 2", "DEPARTAMEN": "LIMA", "GRUPO": "PVC" }, "geometry": { "type": "Point", "coordinates": [ -76.2486648, -11.6623107 ] } },
{ "type": "Feature", "properties": { "ITEM": 34, "TIPO_INFRA": "VIAS CONCESIONADAS", "PROYECTO": "PVC IIRSA SUR TRAMO 5 PUNO JULIACA", "DENOMINACI": "PUNO-JULIACA", "UBICACION": "PUNO JULIACA", "DEPARTAMEN": "PUNO", "GRUPO": "PVC" }, "geometry": { "type": "Point", "coordinates": [ -70.093003, -15.607551 ] } },
{ "type": "Feature", "properties": { "ITEM": 35, "TIPO_INFRA": "VIAS CONCESIONADAS", "PROYECTO": "PVC IIRSA NORTE", "DENOMINACI": "IIRSA NORTE", "UBICACION": "IRSANORTE", "DEPARTAMEN": "PIURA", "GRUPO": "PVC" }, "geometry": { "type": "Point", "coordinates": [-79.8095,-5.6857 ] } },
{ "type": "Feature", "properties": { "ITEM": 49, "TIPO_INFRA": "VIAS CONCESIONADAS", "PROYECTO": "PVC IIRSA SUR TRAMO 4", "DENOMINACI": "PACRI IIRSA SUR TRAMO 4", "UBICACION": "QUILLHUAY", "DEPARTAMEN": "PUNO", "GRUPO": "PVC" }, "geometry": { "type": "Point", "coordinates": [ -70.367566, -13.983275 ] } },
{ "type": "Feature", "properties": { "ITEM": 50, "TIPO_INFRA": "VIAS CONCESIONADAS", "PROYECTO": "PVC IIRSA SUR TRAMO 3", "DENOMINACI": "PACRI IIRSA SUR TRAMO 3", "UBICACION": "ELHIGUERON", "DEPARTAMEN": "MADRE DE DIOS", "GRUPO": "PVC" }, "geometry": { "type": "Point", "coordinates": [ -71.192542, -17.633453528355801 ] } },



{ "type": "Feature", "properties": { "ITEM": 40, "TIPO_INFRA": "VIAS CONCESIONADAS", "PROYECTO": "PVC NUEVO MOCUPE CAYALTI", "DENOMINACI": "PACRI - NUEVO MOCUPE – CAYALTI - OYOTUN", "UBICACION": "SIHUAN", "DEPARTAMEN": "LAMBAYEQUE", "GRUPO": "PVC" }, "geometry": { "type": "Point", "coordinates": [ -79.588695510999969, -6.912864873999979] } },
{ "type": "Feature", "properties": { "ITEM": 41, "TIPO_INFRA": "VIAS CONCESIONADAS", "PROYECTO": "PVC AUTOPISTA DEL SOL", "DENOMINACI": "AUTOPISTA DEL SOL", "UBICACION": "ADS", "DEPARTAMEN": "LA LIBERTAD", "GRUPO": "PVC" }, "geometry": { "type": "Point", "coordinates": [ -79.696362,-6.955480 ] } },
{ "type": "Feature", "properties": { "ITEM": 42, "TIPO_INFRA": "VIAS CONCESIONADAS", "PROYECTO": "PVC DESVIO QUILCA - LA CONCORDIA", "DENOMINACI": "CONCORDIA", "UBICACION": "CONCORDIA", "DEPARTAMEN": "AREQUIPA", "GRUPO": "PVC" }, "geometry": { "type": "Point", "coordinates": [-71.883944,-16.487866 ] } },
{ "type": "Feature", "properties": { "ITEM": 43, "TIPO_INFRA": "VIAS CONCESIONADAS", "PROYECTO": "PVC IIRSA SUR TRAMO 2", "DENOMINACI": "IRSASUR2", "UBICACION": "IRSASUR2", "DEPARTAMEN": "", "GRUPO": "PVC" }, "geometry": { "type": "Point", "coordinates": [ -70.9286994,-13.578960 ] } },
{ "type": "Feature", "properties": { "ITEM": 44, "TIPO_INFRA": "AEROPORTUARIO", "PROYECTO": "AERODROMO DE CABALLOCOCHA", "DENOMINACI":  "MEJORAMIENTO DEL AERÓDROMO DE CABALLOCOCHA", "UBICACION": "CHAMORRO", "DEPARTAMEN": "LORETO", "GRUPO": "G4" }, "geometry": { "type": "Point", "coordinates": [ -70.508834708540164, -3.916150862770625 ] } },
{ "type": "Feature", "properties": { "ITEM": 45, "TIPO_INFRA": "VIAS CONCESIONADAS", "PROYECTO": "PVC HUARAL - ACOS", "DENOMINACI": "HUARAL ACOS", "UBICACION": "WINTON", "DEPARTAMEN": "LIMA", "GRUPO": "PVC" }, "geometry": { "type": "Point", "coordinates": [ -77.008970980126193, -11.376129242317509 ] } }, 
{ "type": "Feature", "properties": { "ITEM": 46, "TIPO_INFRA": "VIAL", "PROYECTO": "LONGITUDINAL DE LA SIERRA TRAMO 04", "DENOMINACI": "LONGITUDINAL DE LA SIERRA TRAMO 04", "UBICACION": "ALTOMOLINO", "DEPARTAMEN": "HUANCAVELICA", "GRUPO": "PE" }, "geometry": { "type": "Point", "coordinates": [ -75.180886216969171, -12.191781569806174 ] } },
{ "type": "Feature", "properties": { "ITEM": 47, "TIPO_INFRA": "AEROPORTUARIO", "PROYECTO": "AERODROMO DE OXAPAMPA", "DENOMINACI":  "REHABILITACION Y MEJORAMIENTO DEL AEROPUERTO DE OXAPAMPA - DISTRITO DE HUANCABAMBA", "UBICACION": "VINCHAMARCA", "DEPARTAMEN": "PASCO", "GRUPO": "G4" }, "geometry": { "type": "Point", "coordinates": [ -75.594989532999989, -10.44910833199998 ] } },
{ "type": "Feature", "properties": { "ITEM": 48, "TIPO_INFRA": "AEROPORTUARIO", "PROYECTO": "AERODROMO DE SOPLIN VARGAS", "DENOMINACI":  "CONSTRUCCION DEL AERODROMO SOPLIN VARGAS", "UBICACION": "SONDORILLO", "DEPARTAMEN": "LORETO", "GRUPO": "G4" }, "geometry": { "type": "Point", "coordinates": [ -74.68246813899998, -0.381341324999937 ] } },
{ "type": "Feature", "properties": { "ITEM": 49, "TIPO_INFRA": "AEROPORTUARIO", "PROYECTO": "AERÓDROMO DE BREU", "DENOMINACI":  "AERÓDROMO DE BREU", "UBICACION": "guaguancu", "DEPARTAMEN": "UCAYALI", "GRUPO": "G4" }, "geometry": { "type": "Point", "coordinates": [ -72.756297419560582, -9.528877288242519 ] } }



]
}
 
